{"type":"FeatureCollection","features":[{"type":"Feature","properties":{"loc":"Ciudad Bolivar"},"geometry":{"type":"Polygon","coordinates":[[[-74.1838,4.5964],[-74.1794,4.577],[-74.1778,4.5777],[-74.1753,4.5754],[-74.1756,4.5717],[-74.1785,4.5702],[-74.1764,4.5605],[-74.1771,4.5539],[-74.1738,4.5516],[-74.1764,4.5458],[-74.1732,4.5411],[-74.1774,4.5374],[-74.184,4.5357],[-74.1881,4.5328],[-74.1832,4.5275],[-74.1822,4.513],[-74.1762,4.5125],[-74.1734,4.5078],[-74.1815,4.5041],[-74.1788,4.4965],[-74.1793,4.4903],[-74.178,4.4864],[-74.1826,4.48],[-74.1833,4.4656],[-74.1865,4.4585],[-74.1864,4.4522],[-74.1905,4.4472],[-74.1909,4.4427],[-74.1947,4.4348],[-74.1942,4.4268],[-74.1988,4.4264],[-74.2034,4.4194],[-74.2041,4.4144],[-74.2082,4.4079],[-74.2078,4.4053],[-74.2131,4.3955],[-74.2109,4.3869],[-74.203,4.3861],[-74.1951,4.3871],[-74.1815,4.3837],[-74.1767,4.3886],[-74.1678,4.3852],[-74.1627,4.3896],[-74.1586,4.3902],[-74.1512,4.3872],[-74.1427,4.3878],[-74.1411,4.3921],[-74.1443,4.4026],[-74.1433,4.4083],[-74.145,4.4151],[-74.1437,4.42],[-74.1448,4.4217],[-74.1439,4.433],[-74.1426,4.434],[-74.1442,4.4483],[-74.1395,4.458],[-74.1376,4.4638],[-74.1383,4.4658],[-74.1368,4.4662],[-74.1303,4.4764],[-74.1284,4.4753],[-74.1245,4.4791],[-74.1218,4.4842],[-74.1204,4.4909],[-74.1231,4.4915],[-74.1213,4.493],[-74.1227,4.4997],[-74.1256,4.5018],[-74.1268,4.5013],[-74.1285,4.5046],[-74.1267,4.5062],[-74.1273,4.5107],[-74.1256,4.5202],[-74.129,4.5244],[-74.1232,4.5275],[-74.1231,4.5323],[-74.1249,4.5442],[-74.13,4.5462],[-74.1269,4.5472],[-74.1263,4.5461],[-74.1254,4.5475],[-74.1271,4.5496],[-74.1322,4.5499],[-74.1332,4.5562],[-74.1353,4.5571],[-74.134,4.5575],[-74.1339,4.5607],[-74.1404,4.565],[-74.1405,4.5683],[-74.1417,4.5688],[-74.1405,4.5705],[-74.1432,4.5726],[-74.141,4.5761],[-74.1426,4.5773],[-74.1448,4.573],[-74.1465,4.5748],[-74.1474,4.5737],[-74.1471,4.5765],[-74.15,4.5783],[-74.1493,4.5815],[-74.1472,4.5819],[-74.1484,4.5833],[-74.1511,4.5826],[-74.1506,4.5845],[-74.1522,4.5854],[-74.1505,4.588],[-74.1526,4.5887],[-74.1518,4.5874],[-74.1531,4.5864],[-74.1533,4.5879],[-74.157,4.5887],[-74.1543,4.5913],[-74.1514,4.5914],[-74.1521,4.593],[-74.1533,4.5922],[-74.1541,4.5935],[-74.1518,4.5964],[-74.1497,4.5961],[-74.1522,4.5998],[-74.1633,4.5957],[-74.1838,4.5964]]]}},{"type":"Feature","properties":{"loc":"Suba"},"geometry":{"type":"Polygon","coordinates":[[[-74.0345,4.8255],[-74.0408,4.8265],[-74.0441,4.833],[-74.0455,4.8305],[-74.0476,4.8306],[-74.05,4.8352],[-74.049,4.8306],[-74.0533,4.8331],[-74.056,4.8289],[-74.0602,4.8286],[-74.0607,4.8274],[-74.063,4.8356],[-74.0645,4.8302],[-74.065,4.8349],[-74.0663,4.8351],[-74.0671,4.828],[-74.0707,4.8284],[-74.0717,4.8342],[-74.0745,4.8367],[-74.0866,4.8322],[-74.0802,4.825],[-74.079,4.8211],[-74.082,4.8164],[-74.0834,4.8221],[-74.0866,4.821],[-74.0871,4.816],[-74.0832,4.8143],[-74.0847,4.8121],[-74.08,4.81],[-74.0799,4.8085],[-74.0885,4.8033],[-74.0871,4.8017],[-74.089,4.8014],[-74.0886,4.7982],[-74.0916,4.7967],[-74.0872,4.7962],[-74.0935,4.7909],[-74.0961,4.7992],[-74.1007,4.7991],[-74.1028,4.7952],[-74.1039,4.795],[-74.1032,4.7974],[-74.1052,4.7969],[-74.108,4.7888],[-74.1116,4.7872],[-74.1124,4.7894],[-74.11,4.7903],[-74.1129,4.7902],[-74.1144,4.7869],[-74.1123,4.7845],[-74.1148,4.7856],[-74.1144,4.7822],[-74.1172,4.7807],[-74.1143,4.7801],[-74.1172,4.7775],[-74.1139,4.7781],[-74.1166,4.772],[-74.1143,4.772],[-74.1147,4.7706],[-74.1183,4.7668],[-74.1157,4.768],[-74.1168,4.7618],[-74.1212,4.7598],[-74.1204,4.7542],[-74.1252,4.754],[-74.1227,4.7473],[-74.1243,4.75],[-74.1273,4.7506],[-74.1256,4.7471],[-74.1301,4.7459],[-74.1319,4.7411],[-74.1288,4.7373],[-74.1274,4.7373],[-74.1261,4.74],[-74.1207,4.7394],[-74.1196,4.7368],[-74.1146,4.7347],[-74.114,4.7321],[-74.1087,4.7274],[-74.1041,4.7258],[-74.104,4.7238],[-74.1005,4.7214],[-74.0998,4.718],[-74.0967,4.7174],[-74.0934,4.7114],[-74.0909,4.7105],[-74.088,4.7057],[-74.0884,4.6985],[-74.0859,4.6973],[-74.0847,4.6944],[-74.0809,4.6931],[-74.0773,4.6854],[-74.0691,4.6897],[-74.0572,4.6868],[-74.0345,4.8255]]]}},{"type":"Feature","properties":{"loc":"Rafael Uribe Uribe"},"geometry":{"type":"Polygon","coordinates":[[[-74.128,4.5925],[-74.1286,4.5866],[-74.1309,4.5859],[-74.1253,4.5696],[-74.1266,4.5665],[-74.1216,4.5562],[-74.1211,4.5454],[-74.1163,4.5406],[-74.1126,4.5404],[-74.1124,4.5417],[-74.0981,4.5349],[-74.1037,4.5455],[-74.1023,4.546],[-74.1032,4.5469],[-74.1018,4.5559],[-74.1063,4.5639],[-74.0946,4.5758],[-74.1027,4.5814],[-74.1089,4.5892],[-74.1169,4.5884],[-74.1245,4.59],[-74.128,4.5925]]]}},{"type":"Feature","properties":{"loc":"Kennedy"},"geometry":{"type":"Polygon","coordinates":[[[-74.1183,4.6374],[-74.1238,4.6409],[-74.1257,4.6452],[-74.1292,4.6485],[-74.1323,4.6489],[-74.1371,4.6588],[-74.1409,4.6628],[-74.1448,4.6612],[-74.1514,4.6642],[-74.1546,4.6643],[-74.1571,4.6615],[-74.1623,4.6634],[-74.164,4.6586],[-74.1662,4.6599],[-74.1677,4.6564],[-74.1723,4.6571],[-74.1801,4.6526],[-74.1822,4.6492],[-74.1857,4.647],[-74.1778,4.6297],[-74.1766,4.624],[-74.1801,4.6185],[-74.1852,4.6189],[-74.1851,4.6157],[-74.1828,4.6171],[-74.182,4.6147],[-74.1795,4.6164],[-74.1819,4.6143],[-74.1773,4.6098],[-74.1774,4.6064],[-74.1787,4.6055],[-74.1766,4.6053],[-74.1761,4.6036],[-74.1776,4.601],[-74.176,4.6012],[-74.1755,4.6034],[-74.1729,4.6032],[-74.1745,4.6014],[-74.174,4.6002],[-74.1701,4.6006],[-74.1686,4.6042],[-74.1627,4.6063],[-74.1522,4.6007],[-74.1497,4.5958],[-74.1523,4.5957],[-74.1378,4.5949],[-74.1293,4.6089],[-74.1245,4.6239],[-74.1183,4.6374]]]}},{"type":"Feature","properties":{"loc":"Usme"},"geometry":{"type":"Polygon","coordinates":[[[-74.056,4.5083],[-74.0614,4.5118],[-74.0684,4.51],[-74.0689,4.5119],[-74.0705,4.5116],[-74.0719,4.5183],[-74.0686,4.528],[-74.0697,4.5294],[-74.0739,4.5293],[-74.0787,4.527],[-74.0765,4.5319],[-74.0784,4.5323],[-74.0793,4.53],[-74.0797,4.5321],[-74.0819,4.5296],[-74.0802,4.5265],[-74.0828,4.5278],[-74.0878,4.5206],[-74.0819,4.5178],[-74.0911,4.5197],[-74.0896,4.5171],[-74.0945,4.5169],[-74.0934,4.5234],[-74.0958,4.538],[-74.097,4.5399],[-74.0983,4.5394],[-74.0978,4.5414],[-74.1005,4.5452],[-74.1037,4.5455],[-74.0981,4.5349],[-74.1124,4.5417],[-74.1126,4.5404],[-74.1163,4.5406],[-74.1211,4.5454],[-74.1261,4.5448],[-74.1249,4.5441],[-74.1231,4.5292],[-74.1232,4.5275],[-74.129,4.5244],[-74.1256,4.5202],[-74.1273,4.5107],[-74.1267,4.5062],[-74.1285,4.5045],[-74.1268,4.5013],[-74.1256,4.5018],[-74.1227,4.4997],[-74.1213,4.493],[-74.1231,4.4915],[-74.1204,4.4908],[-74.1218,4.4842],[-74.1245,4.4791],[-74.1284,4.4753],[-74.1303,4.4764],[-74.1368,4.4662],[-74.1383,4.4658],[-74.1376,4.4638],[-74.1395,4.458],[-74.1442,4.4483],[-74.1426,4.434],[-74.1439,4.433],[-74.1448,4.4217],[-74.1437,4.42],[-74.145,4.4151],[-74.1433,4.4083],[-74.1443,4.4026],[-74.1413,4.3916],[-74.1427,4.3878],[-74.1512,4.3872],[-74.1586,4.3902],[-74.1627,4.3896],[-74.1678,4.3852],[-74.1773,4.3886],[-74.1815,4.3837],[-74.1951,4.3871],[-74.203,4.3861],[-74.2109,4.3869],[-74.2108,4.3821],[-74.2142,4.3764],[-74.2122,4.3743],[-74.2172,4.367],[-74.2212,4.364],[-74.2198,4.3402],[-74.218,4.3352],[-74.2185,4.3273],[-74.2143,4.304],[-74.2161,4.2868],[-74.2211,4.2822],[-74.2167,4.2768],[-74.2162,4.273],[-74.2122,4.2735],[-74.2058,4.2697],[-74.2049,4.2761],[-74.202,4.2828],[-74.195,4.2901],[-74.1882,4.2829],[-74.1854,4.2819],[-74.1605,4.2837],[-74.1375,4.3042],[-74.1324,4.3061],[-74.1244,4.3067],[-74.1146,4.3136],[-74.1143,4.3181],[-74.112,4.3203],[-74.111,4.3238],[-74.107,4.325],[-74.1043,4.3328],[-74.1053,4.3368],[-74.0989,4.345],[-74.0971,4.3544],[-74.0978,4.3574],[-74.0944,4.3642],[-74.0953,4.3699],[-74.0987,4.3742],[-74.0985,4.3782],[-74.1051,4.3786],[-74.1112,4.3859],[-74.1138,4.3865],[-74.1131,4.3943],[-74.1147,4.3977],[-74.1147,4.4061],[-74.1132,4.4096],[-74.1144,4.4132],[-74.1131,4.4161],[-74.112,4.4353],[-74.1091,4.4432],[-74.1058,4.4464],[-74.1033,4.4523],[-74.0932,4.456],[-74.0901,4.4591],[-74.0846,4.4567],[-74.0814,4.4582],[-74.0796,4.4617],[-74.0769,4.4618],[-74.077,4.4659],[-74.0751,4.4694],[-74.0761,4.4736],[-74.0753,4.4846],[-74.0689,4.4869],[-74.0651,4.4865],[-74.0592,4.4971],[-74.056,4.5083]]]}},{"type":"Feature","properties":{"loc":"Los Martires"},"geometry":{"type":"Polygon","coordinates":[[[-74.0728,4.6154],[-74.0788,4.6239],[-74.0832,4.6247],[-74.0991,4.605],[-74.1071,4.5982],[-74.1032,4.5947],[-74.0991,4.5949],[-74.089,4.5918],[-74.0767,4.6081],[-74.0728,4.6154]]]}},{"type":"Feature","properties":{"loc":"Santa Fe"},"geometry":{"type":"Polygon","coordinates":[[[-73.9945,4.6142],[-74.0037,4.6165],[-74.0078,4.6156],[-74.0132,4.6186],[-74.0179,4.6145],[-74.0216,4.6138],[-74.0281,4.6179],[-74.0324,4.6155],[-74.0315,4.6171],[-74.0359,4.6175],[-74.0397,4.613],[-74.0436,4.6126],[-74.0475,4.6162],[-74.0494,4.6216],[-74.0652,4.6251],[-74.0684,4.6288],[-74.0699,4.6211],[-74.0759,4.6093],[-74.089,4.5918],[-74.0808,4.5858],[-74.074,4.5763],[-74.0721,4.5777],[-74.0716,4.5765],[-74.07,4.577],[-74.0662,4.5836],[-74.0607,4.5793],[-74.0489,4.5735],[-74.0436,4.5719],[-74.037,4.5722],[-74.0361,4.5712],[-74.0337,4.5725],[-74.0317,4.5706],[-74.0325,4.5675],[-74.0293,4.562],[-74.029,4.5583],[-74.024,4.5558],[-74.0224,4.5562],[-74.021,4.5593],[-74.0181,4.5603],[-74.0068,4.5593],[-74.0068,4.5655],[-74.0044,4.5738],[-74.0061,4.5786],[-74.0037,4.5871],[-74.0016,4.5892],[-74.0028,4.5922],[-73.9992,4.5926],[-73.9937,4.6005],[-73.9966,4.6063],[-73.9945,4.6096],[-73.9945,4.6142]],[[-74.0662,4.6032],[-74.0623,4.6033],[-74.0593,4.6014],[-74.065,4.5991],[-74.0647,4.5974],[-74.0664,4.5973],[-74.0683,4.5936],[-74.0683,4.5899],[-74.0706,4.5915],[-74.0728,4.589],[-74.0806,4.5917],[-74.0814,4.5946],[-74.0767,4.6021],[-74.0711,4.6006],[-74.0662,4.6032]]]}},{"type":"Feature","properties":{"loc":"Barrios Unidos"},"geometry":{"type":"Polygon","coordinates":[[[-74.0572,4.6868],[-74.0712,4.6894],[-74.0852,4.6789],[-74.0937,4.6661],[-74.0848,4.6542],[-74.0646,4.6496],[-74.0572,4.6868]]]}},{"type":"Feature","properties":{"loc":"Fontibon"},"geometry":{"type":"Polygon","coordinates":[[[-74.1034,4.6535],[-74.1209,4.681],[-74.1247,4.6848],[-74.1184,4.6887],[-74.1204,4.6922],[-74.1548,4.7176],[-74.1548,4.7105],[-74.1561,4.708],[-74.1604,4.7082],[-74.1622,4.7073],[-74.1619,4.7059],[-74.177,4.7028],[-74.1745,4.7006],[-74.1692,4.7009],[-74.1724,4.6944],[-74.1676,4.688],[-74.1737,4.6826],[-74.1749,4.6766],[-74.1715,4.6743],[-74.171,4.6772],[-74.1695,4.6754],[-74.1659,4.6782],[-74.1646,4.6757],[-74.1602,4.6783],[-74.1622,4.681],[-74.1601,4.683],[-74.157,4.6793],[-74.1576,4.6774],[-74.1624,4.6753],[-74.1641,4.6713],[-74.1661,4.6733],[-74.1698,4.6718],[-74.1698,4.6689],[-74.1607,4.6671],[-74.1611,4.6647],[-74.1571,4.6615],[-74.1546,4.6643],[-74.1511,4.6642],[-74.1448,4.6612],[-74.1409,4.6628],[-74.1371,4.6588],[-74.1323,4.6489],[-74.1292,4.6485],[-74.1257,4.6452],[-74.1238,4.6409],[-74.1183,4.6374],[-74.1034,4.6535]]]}},{"type":"Feature","properties":{"loc":"Engativa"},"geometry":{"type":"Polygon","coordinates":[[[-74.1555,4.718],[-74.1204,4.6922],[-74.1184,4.6887],[-74.1247,4.6848],[-74.1209,4.681],[-74.1034,4.6535],[-74.0852,4.6789],[-74.0773,4.6854],[-74.0809,4.6931],[-74.0847,4.6944],[-74.0859,4.6973],[-74.0884,4.6985],[-74.088,4.7057],[-74.0909,4.7105],[-74.0934,4.7114],[-74.0967,4.7174],[-74.0998,4.718],[-74.1005,4.7214],[-74.104,4.7238],[-74.1041,4.7258],[-74.1087,4.7274],[-74.114,4.7321],[-74.1146,4.7347],[-74.1196,4.7368],[-74.1207,4.7394],[-74.1272,4.7393],[-74.1267,4.7367],[-74.1284,4.7353],[-74.126,4.7297],[-74.1286,4.7267],[-74.1306,4.7309],[-74.1356,4.7283],[-74.1374,4.7307],[-74.1486,4.7259],[-74.1511,4.7227],[-74.1565,4.7235],[-74.1569,4.7255],[-74.1586,4.7252],[-74.1603,4.7202],[-74.1563,4.7172],[-74.1555,4.718]]]}},{"type":"Feature","properties":{"loc":"Candelaria"},"geometry":{"type":"Polygon","coordinates":[[[-74.0662,4.6032],[-74.0711,4.6006],[-74.0767,4.6021],[-74.0814,4.5946],[-74.0806,4.5917],[-74.0728,4.589],[-74.0706,4.5915],[-74.0683,4.5899],[-74.0683,4.5936],[-74.0664,4.5973],[-74.0647,4.5974],[-74.065,4.5991],[-74.0593,4.6014],[-74.0623,4.6033],[-74.0662,4.6032]]]}},{"type":"Feature","properties":{"loc":"Chapinero"},"geometry":{"type":"Polygon","coordinates":[[[-74.0109,4.6636],[-74.012,4.6661],[-74.0145,4.6665],[-74.0136,4.6695],[-74.019,4.6738],[-74.0239,4.6758],[-74.0305,4.6756],[-74.0314,4.6773],[-74.0484,4.685],[-74.0572,4.6868],[-74.0684,4.6288],[-74.0652,4.6251],[-74.0494,4.6216],[-74.0475,4.6162],[-74.0436,4.6126],[-74.0397,4.613],[-74.0359,4.6175],[-74.0315,4.6171],[-74.0324,4.6155],[-74.0281,4.6179],[-74.0216,4.6138],[-74.0179,4.6145],[-74.0132,4.6186],[-74.0078,4.6156],[-74.0037,4.6165],[-73.9945,4.6142],[-73.9912,4.6179],[-73.992,4.6215],[-73.987,4.6275],[-73.987,4.6305],[-73.993,4.63],[-73.9994,4.6269],[-74.0037,4.6271],[-74.0073,4.6255],[-74.0098,4.6267],[-74.0093,4.6299],[-74.0104,4.6304],[-74.0093,4.6388],[-74.0287,4.643],[-74.0315,4.645],[-74.028,4.6489],[-74.029,4.6536],[-74.0256,4.6566],[-74.0247,4.6621],[-74.0195,4.6614],[-74.0142,4.6639],[-74.0109,4.6636]]]}},{"type":"Feature","properties":{"loc":"Antonio Nariño"},"geometry":{"type":"Polygon","coordinates":[[[-74.1308,4.5934],[-74.1245,4.59],[-74.1169,4.5884],[-74.1089,4.5892],[-74.1027,4.5814],[-74.0946,4.5758],[-74.0849,4.5893],[-74.0907,4.5925],[-74.0991,4.5949],[-74.1032,4.5947],[-74.1071,4.5982],[-74.1209,4.5938],[-74.1308,4.5934]]]}},{"type":"Feature","properties":{"loc":"Teusaquillo"},"geometry":{"type":"Polygon","coordinates":[[[-74.0937,4.6661],[-74.1104,4.6451],[-74.0915,4.6257],[-74.0788,4.6239],[-74.0728,4.6154],[-74.0697,4.6216],[-74.0646,4.6496],[-74.0836,4.6533],[-74.0937,4.6661]]]}},{"type":"Feature","properties":{"loc":"San Cristobal"},"geometry":{"type":"Polygon","coordinates":[[[-74.0294,4.5475],[-74.0293,4.562],[-74.0325,4.5675],[-74.0317,4.5706],[-74.0337,4.5725],[-74.0361,4.5712],[-74.037,4.5722],[-74.0436,4.5719],[-74.0489,4.5735],[-74.0607,4.5793],[-74.0662,4.5836],[-74.07,4.577],[-74.0716,4.5765],[-74.0721,4.5777],[-74.074,4.5763],[-74.0808,4.5858],[-74.0849,4.5893],[-74.0946,4.5758],[-74.1063,4.5639],[-74.1018,4.5559],[-74.1032,4.5469],[-74.0998,4.5445],[-74.0978,4.5414],[-74.0983,4.5394],[-74.097,4.5399],[-74.0958,4.538],[-74.0934,4.5234],[-74.0949,4.5173],[-74.0896,4.5171],[-74.0911,4.5197],[-74.0819,4.5178],[-74.0878,4.5206],[-74.0828,4.5278],[-74.0802,4.5265],[-74.0817,4.5302],[-74.0797,4.5321],[-74.0793,4.5301],[-74.0777,4.5324],[-74.0765,4.5318],[-74.0789,4.5278],[-74.0787,4.527],[-74.0738,4.5293],[-74.0686,4.5286],[-74.0719,4.516],[-74.0705,4.5116],[-74.0689,4.5119],[-74.0685,4.51],[-74.0614,4.5118],[-74.056,4.5083],[-74.0507,4.5114],[-74.0425,4.5106],[-74.0387,4.5273],[-74.0356,4.5356],[-74.0319,4.5394],[-74.0316,4.5442],[-74.0294,4.5475]]]}},{"type":"Feature","properties":{"loc":"Usaquen"},"geometry":{"type":"Polygon","coordinates":[[[-74.0109,4.6636],[-74.0043,4.67],[-74.0025,4.6753],[-74.0043,4.6796],[-74.0112,4.6839],[-74.0122,4.6914],[-74.0111,4.6935],[-74.0143,4.6973],[-74.0098,4.7152],[-74.007,4.7164],[-74.0084,4.7205],[-74.0074,4.7419],[-74.0096,4.7496],[-74.0093,4.7552],[-74.0185,4.7626],[-74.0191,4.7679],[-74.0155,4.7758],[-74.0159,4.7878],[-74.0133,4.7966],[-74.008,4.7969],[-74.0002,4.8024],[-73.999,4.8049],[-74.0045,4.8106],[-74.0037,4.8186],[-74.0056,4.8217],[-74.0241,4.8219],[-74.0298,4.8232],[-74.0336,4.8258],[-74.035,4.8231],[-74.0572,4.6868],[-74.0484,4.685],[-74.0314,4.6773],[-74.0305,4.6756],[-74.0239,4.6758],[-74.019,4.6738],[-74.0136,4.6695],[-74.0145,4.6665],[-74.012,4.6661],[-74.0109,4.6636]]]}},{"type":"Feature","properties":{"loc":"Tunjuelito"},"geometry":{"type":"Polygon","coordinates":[[[-74.1378,4.5949],[-74.1523,4.5957],[-74.1542,4.5929],[-74.1521,4.593],[-74.1514,4.5914],[-74.1543,4.5913],[-74.157,4.5887],[-74.1533,4.5879],[-74.1531,4.5864],[-74.1518,4.5874],[-74.1526,4.5887],[-74.1505,4.588],[-74.1522,4.5854],[-74.1506,4.5845],[-74.1511,4.5826],[-74.1484,4.5833],[-74.1472,4.5819],[-74.1493,4.5815],[-74.15,4.5783],[-74.1471,4.5765],[-74.1474,4.5737],[-74.1465,4.5748],[-74.1448,4.573],[-74.1426,4.5773],[-74.141,4.5761],[-74.1432,4.5728],[-74.1405,4.5705],[-74.1417,4.5688],[-74.1405,4.5683],[-74.1404,4.565],[-74.1339,4.5607],[-74.134,4.5575],[-74.1353,4.5571],[-74.1332,4.5562],[-74.132,4.5496],[-74.1271,4.5496],[-74.1254,4.5475],[-74.1263,4.5461],[-74.1269,4.5472],[-74.13,4.546],[-74.1239,4.5445],[-74.1211,4.5454],[-74.1214,4.5553],[-74.1266,4.5665],[-74.1253,4.5696],[-74.1309,4.5859],[-74.1286,4.5866],[-74.1283,4.5927],[-74.1378,4.5949]]]}},{"type":"Feature","properties":{"loc":"Bosa"},"geometry":{"type":"Polygon","coordinates":[[[-74.1857,4.647],[-74.1837,4.6527],[-74.1868,4.6515],[-74.1936,4.6551],[-74.1969,4.6505],[-74.2029,4.6465],[-74.2009,4.6438],[-74.2068,4.6466],[-74.2055,4.6423],[-74.207,4.6406],[-74.2135,4.6404],[-74.2156,4.6443],[-74.2213,4.6441],[-74.22,4.6417],[-74.2158,4.64],[-74.2147,4.6373],[-74.2175,4.6351],[-74.2163,4.6297],[-74.2209,4.6302],[-74.2224,4.6291],[-74.2236,4.6255],[-74.2207,4.6231],[-74.2224,4.6211],[-74.2208,4.62],[-74.2217,4.6189],[-74.2184,4.6179],[-74.2183,4.6162],[-74.2043,4.5994],[-74.2041,4.6008],[-74.1839,4.5964],[-74.1656,4.5957],[-74.1607,4.5962],[-74.1522,4.5998],[-74.157,4.6041],[-74.1631,4.6063],[-74.1686,4.6042],[-74.1701,4.6006],[-74.174,4.6002],[-74.1745,4.6014],[-74.1729,4.6032],[-74.1755,4.6034],[-74.176,4.6012],[-74.1778,4.6011],[-74.1761,4.6036],[-74.1766,4.6053],[-74.1787,4.6055],[-74.1774,4.6064],[-74.1773,4.6096],[-74.1819,4.6143],[-74.1795,4.6164],[-74.182,4.6147],[-74.1828,4.6171],[-74.185,4.6157],[-74.1852,4.6189],[-74.1801,4.6185],[-74.1766,4.624],[-74.1778,4.6297],[-74.1857,4.647]]]}},{"type":"Feature","properties":{"loc":"Puente Aranda"},"geometry":{"type":"Polygon","coordinates":[[[-74.1183,4.6374],[-74.1245,4.6239],[-74.1293,4.6089],[-74.1378,4.5949],[-74.1308,4.5934],[-74.1221,4.5936],[-74.1071,4.5982],[-74.0991,4.605],[-74.0832,4.6247],[-74.0915,4.6257],[-74.1104,4.6451],[-74.1183,4.6374]]]}}]}